{"type": "FeatureCollection", "features": [ {"type": "Feature", "properties": {"norad_id": 40938, "name": "BEIDOU-3S IGSO-2S (C56)", "group": "gnss", "lat": -40.99621414862237, "lon": 128.7631589802727, "alt_km": 35629.750499519476, "timestamp": "2025-12-24T20:42:21.269552+00:00", "meta": {"OBJECT_NAME": "BEIDOU-3S IGSO-2S (C56)", "OBJECT_ID": "2015-053A", "EPOCH": "2025-12-23T17:00:29.513952", "MEAN_MOTION": 1.00267867, "ECCENTRICITY": 0.00606419, "INCLINATION": 49.4936, "RA_OF_ASC_NODE": 260.877, "ARG_OF_PERICENTER": 188.6586, "MEAN_ANOMALY": 353.8857, "EPHEMERIS_TYPE": 0, "CLASSIFICATION_TYPE": "U", "NORAD_CAT_ID": 40938, "ELEMENT_SET_NO": 999, "REV_AT_EPOCH": 3759, "BSTAR": 0, "MEAN_MOTION_DOT": -1.09e-06, "MEAN_MOTION_DDOT": 0}, "tle": {"line1": "1 40938U 15053A   25357.70867493 -.00000109  00000+0  00000+0 0  9993", "line2": "2 40938  49.4936 260.8770 0060641 188.6586 353.8857  1.00267867 37590"}}, "geometry": {"type": "Point", "coordinates": [128.7631589802727, -40.99621414862237]}}, {"type": "Feature", "properties": {"norad_id": 41019, "name": "GPS BIIF-11 (PRN 10)", "group": "gnss", "lat": 47.424884569219074, "lon": 82.88926691499859, "alt_km": 20465.985389708614, "timestamp": "2025-12-24T20:42:21.269563+00:00", "meta": {"OBJECT_NAME": "GPS BIIF-11 (PRN 10)", "OBJECT_ID": "2015-062A", "EPOCH": "2025-12-23T18:41:09.835584", "MEAN_MOTION": 2.00567099, "ECCENTRICITY": 0.01110889, "INCLINATION": 56.8401, "RA_OF_ASC_NODE": 37.5754, "ARG_OF_PERICENTER": 230.2332, "MEAN_ANOMALY": 128.8479, "EPHEMERIS_TYPE": 0, "CLASSIFICATION_TYPE": "U", "NORAD_CAT_ID": 41019, "ELEMENT_SET_NO": 999, "REV_AT_EPOCH": 7431, "BSTAR": 0, "MEAN_MOTION_DOT": -4.7e-07, "MEAN_MOTION_DDOT": 0}, "tle": {"line1": "1 41019U 15062A   25357.77858606 -.00000047  00000+0  00000+0 0  9998", "line2": "2 41019  56.8401  37.5754 0111088 230.2332 128.8479  2.00567099 74318"}}, "geometry": {"type": "Point", "coordinates": [82.88926691499859, 47.424884569219074]}}, {"type": "Feature", "properties": {"norad_id": 41028, "name": "GSAT-15 (GAGAN/PRN 139)", "group": "gnss", "lat": 0.0043084019934288955, "lon": 137.6992755726542, "alt_km": 35788.364304151146, "timestamp": "2025-12-24T20:42:21.269575+00:00", "meta": {"OBJECT_NAME": "GSAT-15 (GAGAN/PRN 139)", "OBJECT_ID": "2015-065A", "EPOCH": "2025-12-24T01:38:38.621184", "MEAN_MOTION": 1.00271676, "ECCENTRICITY": 0.00023603, "INCLINATION": 0.02, "RA_OF_ASC_NODE": 277.7383, "ARG_OF_PERICENTER": 322.3142, "MEAN_ANOMALY": 330.9697, "EPHEMERIS_TYPE": 0, "CLASSIFICATION_TYPE": "U", "NORAD_CAT_ID": 41028, "ELEMENT_SET_NO": 999, "REV_AT_EPOCH": 3704, "BSTAR": 0, "MEAN_MOTION_DOT": -2.37e-06, "MEAN_MOTION_DDOT": 0}, "tle": {"line1": "1 41028U 15065A   25358.06850256 -.00000237  00000+0  00000+0 0  9998", "line2": "2 41028   0.0200 277.7383 0002360 322.3142 330.9697  1.00271676 37045"}}, "geometry": {"type": "Point", "coordinates": [137.6992755726542, 0.0043084019934288955]}}, {"type": "Feature", "properties": {"norad_id": 41174, "name": "GSAT0209 (GALILEO 12)", "group": "gnss", "lat": 19.762474146914805, "lon": 120.21338398023754, "alt_km": 23214.17474274488, "timestamp": "2025-12-24T20:42:21.269588+00:00", "meta": {"OBJECT_NAME": "GSAT0209 (GALILEO 12)", "OBJECT_ID": "2015-079A", "EPOCH": "2025-12-21T21:22:17.332896", "MEAN_MOTION": 1.70474556, "ECCENTRICITY": 0.00025231, "INCLINATION": 55.7178, "RA_OF_ASC_NODE": 106.13, "ARG_OF_PERICENTER": 342.7574, "MEAN_ANOMALY": 17.2091, "EPHEMERIS_TYPE": 0, "CLASSIFICATION_TYPE": "U", "NORAD_CAT_ID": 41174, "ELEMENT_SET_NO": 999, "REV_AT_EPOCH": 6175, "BSTAR": 0, "MEAN_MOTION_DOT": 5e-08, "MEAN_MOTION_DDOT": 0}, "tle": {"line1": "1 41174U 15079A   25355.89047839  .00000005  00000+0  00000+0 0  9990", "line2": "2 41174  55.7178 106.1300 0002523 342.7574  17.2091  1.70474556 61755"}}, "geometry": {"type": "Point", "coordinates": [120.21338398023754, 19.762474146914805]}}, {"type": "Feature", "properties": {"norad_id": 41175, "name": "GSAT0208 (GALILEO 11)", "group": "gnss", "lat": -50.506242446026604, "lon": -18.216278463391003, "alt_km": 23229.01545160596, "timestamp": "2025-12-24T20:42:21.269599+00:00", "meta": {"OBJECT_NAME": "GSAT0208 (GALILEO 11)", "OBJECT_ID": "2015-079B", "EPOCH": "2025-12-23T06:48:42.697728", "MEAN_MOTION": 1.7047421, "ECCENTRICITY": 0.0001871, "INCLINATION": 55.7171, "RA_OF_ASC_NODE": 106.0888, "ARG_OF_PERICENTER": 351.9973, "MEAN_ANOMALY": 7.984, "EPHEMERIS_TYPE": 0, "CLASSIFICATION_TYPE": "U", "NORAD_CAT_ID": 41175, "ELEMENT_SET_NO": 999, "REV_AT_EPOCH": 6219, "BSTAR": 0, "MEAN_MOTION_DOT": 1.1e-07, "MEAN_MOTION_DDOT": 0}, "tle": {"line1": "1 41175U 15079B   25357.28382752  .00000011  00000+0  00000+0 0  9999", "line2": "2 41175  55.7171 106.0888 0001871 351.9973   7.9840  1.70474210 62193"}}, "geometry": {"type": "Point", "coordinates": [-18.216278463391003, -50.506242446026604]}}, {"type": "Feature", "properties": {"norad_id": 41241, "name": "IRNSS-1E", "group": "gnss", "lat": 32.81099979986352, "lon": 156.28581728598124, "alt_km": 35792.05214327126, "timestamp": "2025-12-24T20:42:21.269610+00:00", "meta": {"OBJECT_NAME": "IRNSS-1E", "OBJECT_ID": "2016-003A", "EPOCH": "2025-12-23T15:49:14.018592", "MEAN_MOTION": 1.0026902, "ECCENTRICITY": 0.0021565, "INCLINATION": 32.8492, "RA_OF_ASC_NODE": 62.2938, "ARG_OF_PERICENTER": 188.8816, "MEAN_ANOMALY": 190.2765, "EPHEMERIS_TYPE": 0, "CLASSIFICATION_TYPE": "U", "NORAD_CAT_ID": 41241, "ELEMENT_SET_NO": 999, "REV_AT_EPOCH": 3632, "BSTAR": 0, "MEAN_MOTION_DOT": -2.93e-06, "MEAN_MOTION_DDOT": 0}, "tle": {"line1": "1 41241U 16003A   25357.65919003 -.00000293  00000+0  00000+0 0  9990", "line2": "2 41241  32.8492  62.2938 0021565 188.8816 190.2765  1.00269020 36325"}}, "geometry": {"type": "Point", "coordinates": [156.28581728598124, 32.81099979986352]}}, {"type": "Feature", "properties": {"norad_id": 41328, "name": "GPS BIIF-12 (PRN 32)", "group": "gnss", "lat": 2.4646573101918396, "lon": 98.08040072793943, "alt_km": 20300.921673321023, "timestamp": "2025-12-24T20:42:21.269621+00:00", "meta": {"OBJECT_NAME": "GPS BIIF-12 (PRN 32)", "OBJECT_ID": "2016-007A", "EPOCH": "2025-12-23T20:40:23.632032", "MEAN_MOTION": 2.00560126, "ECCENTRICITY": 0.00927286, "INCLINATION": 55.4122, "RA_OF_ASC_NODE": 96.4156, "ARG_OF_PERICENTER": 243.8623, "MEAN_ANOMALY": 115.1928, "EPHEMERIS_TYPE": 0, "CLASSIFICATION_TYPE": "U", "NORAD_CAT_ID": 41328, "ELEMENT_SET_NO": 999, "REV_AT_EPOCH": 7232, "BSTAR": 0, "MEAN_MOTION_DOT": 1.1e-07, "MEAN_MOTION_DDOT": 0}, "tle": {"line1": "1 41328U 16007A   25357.86138463  .00000011  00000+0  00000+0 0  9993", "line2": "2 41328  55.4122  96.4156 0092728 243.8623 115.1928  2.00560126 72329"}}, "geometry": {"type": "Point", "coordinates": [98.08040072793943, 2.4646573101918396]}}, {"type": "Feature", "properties": {"norad_id": 41330, "name": "COSMOS 2514 (751)", "group": "gnss", "lat": 59.01747773818062, "lon": 88.43729592795867, "alt_km": 19133.939331003905, "timestamp": "2025-12-24T20:42:21.269632+00:00", "meta": {"OBJECT_NAME": "COSMOS 2514 (751)", "OBJECT_ID": "2016-008A", "EPOCH": "2025-12-23T18:45:46.770912", "MEAN_MOTION": 2.13102642, "ECCENTRICITY": 0.00116336, "INCLINATION": 65.1274, "RA_OF_ASC_NODE": 319.026, "ARG_OF_PERICENTER": 220.0869, "MEAN_ANOMALY": 139.8272, "EPHEMERIS_TYPE": 0, "CLASSIFICATION_TYPE": "U", "NORAD_CAT_ID": 41330, "ELEMENT_SET_NO": 999, "REV_AT_EPOCH": 7688, "BSTAR": 0, "MEAN_MOTION_DOT": -3.5e-07, "MEAN_MOTION_DDOT": 0}, "tle": {"line1": "1 41330U 16008A   25357.78179133 -.00000035  00000+0  00000+0 0  9994", "line2": "2 41330  65.1274 319.0260 0011633 220.0869 139.8272  2.13102642 76882"}}, "geometry": {"type": "Point", "coordinates": [88.43729592795867, 59.01747773818062]}}, {"type": "Feature", "properties": {"norad_id": 41384, "name": "IRNSS-1F", "group": "gnss", "lat": -1.9883111034222687, "lon": 76.93697266545381, "alt_km": 35870.496409112675, "timestamp": "2025-12-24T20:42:21.269644+00:00", "meta": {"OBJECT_NAME": "IRNSS-1F", "OBJECT_ID": "2016-015A", "EPOCH": "2025-12-23T23:33:29.527200", "MEAN_MOTION": 1.00278072, "ECCENTRICITY": 0.00226621, "INCLINATION": 4.9093, "RA_OF_ASC_NODE": 101.0199, "ARG_OF_PERICENTER": 182.1246, "MEAN_ANOMALY": 195.4962, "EPHEMERIS_TYPE": 0, "CLASSIFICATION_TYPE": "U", "NORAD_CAT_ID": 41384, "ELEMENT_SET_NO": 999, "REV_AT_EPOCH": 3591, "BSTAR": 0, "MEAN_MOTION_DOT": 1.77e-06, "MEAN_MOTION_DDOT": 0}, "tle": {"line1": "1 41384U 16015A   25357.98159175  .00000177  00000+0  00000+0 0  9993", "line2": "2 41384   4.9093 101.0199 0022662 182.1246 195.4962  1.00278072 35911"}}, "geometry": {"type": "Point", "coordinates": [76.93697266545381, -1.9883111034222687]}}, {"type": "Feature", "properties": {"norad_id": 41434, "name": "BEIDOU-2 IGSO-6 (C13)", "group": "gnss", "lat": 59.13714227133275, "lon": 144.55069602943922, "alt_km": 35949.49351015415, "timestamp": "2025-12-24T20:42:21.269655+00:00", "meta": {"OBJECT_NAME": "BEIDOU-2 IGSO-6 (C13)", "OBJECT_ID": "2016-021A", "EPOCH": "2025-12-18T14:33:38.837664", "MEAN_MOTION": 1.00292299, "ECCENTRICITY": 0.00610054, "INCLINATION": 59.9732, "RA_OF_ASC_NODE": 39.8392, "ARG_OF_PERICENTER": 230.2031, "MEAN_ANOMALY": 129.1398, "EPHEMERIS_TYPE": 0, "CLASSIFICATION_TYPE": "U", "NORAD_CAT_ID": 41434, "ELEMENT_SET_NO": 999, "REV_AT_EPOCH": 3566, "BSTAR": 0, "MEAN_MOTION_DOT": -1.41e-06, "MEAN_MOTION_DDOT": 0}, "tle": {"line1": "1 41434U 16021A   25352.60669951 -.00000141  00000+0  00000+0 0  9990", "line2": "2 41434  59.9732  39.8392 0061005 230.2031 129.1398  1.00292299 35667"}}, "geometry": {"type": "Point", "coordinates": [144.55069602943922, 59.13714227133275]}}]}